NOAA 1                  
1 04793U 70106A   26062.75839315 -.00000026  00000+0  10670-3 0  9999
2 04793 101.3525 102.0386 0031685 192.4898 290.6234 12.54049147527474
NOAA 2 (ITOS-D)         
1 06235U 72082A   26062.68122315 -.00000032  00000+0  88374-4 0  9998
2 06235 102.0168  80.0662 0004000  16.5610  98.3303 12.53211619441737
NOAA 3                  
1 06920U 73086A   26062.63529995 -.00000033  00000+0  98786-4 0  9993
2 06920 102.2909  75.5548 0006188 320.3490 157.8450 12.40391593368813
NOAA 4                  
1 07529U 74089A   26062.65958343 -.00000042  00000+0  25942-4 0  9992
2 07529 102.0074  74.3262 0009166  40.1247  69.2102 12.53201525346305
NOAA 5                  
1 09057U 76077A   26062.92982900 -.00000039  00000+0  55212-4 0  9994
2 09057 102.2951  48.4066 0009764 171.1689 202.7500 12.37828214241450
TIROS N                 
1 11060U 78096A   26062.67848851  .00000227  00000+0  12799-3 0  9992
2 11060  98.4639  88.4649 0010402 182.1762 177.9371 14.19335292663786
NOAA 6                  
1 11416U 79057A   26062.69630263  .00000422  00000+0  16209-3 0  9990
2 11416  98.5758  92.8861 0009406 205.1023 154.9706 14.35428356435828
NOAA 7                  
1 12553U 81059A   26062.80362617  .00000093  00000+0  67396-4 0  9994
2 12553  98.8071 130.9043 0011037 204.8445 155.2199 14.17771907309817
NOAA 8                  
1 13923U 83022A   26062.60593116  .00000204  00000+0  96927-4 0  9992
2 13923  98.7373  75.3832 0014335 203.6155 156.4370 14.29764075235981
NOAA 9                  
1 15427U 84123A   26062.72490722  .00000145  00000+0  95370-4 0  9993
2 15427  99.1101  86.8671 0013707 289.8193 183.1605 14.17036595128484
NOAA 10                 
1 16969U 86073A   26062.53236189  .00000219  00000+0  10398-3 0  9993
2 16969  98.6994  55.9376 0011210 308.8224 162.0514 14.29141199 54329
NOAA 11                 
1 19531U 88089A   26062.85022814  .00000083  00000+0  63575-4 0  9998
2 19531  98.6090  12.0878 0010072 237.7636 122.2562 14.15819243932577
NOAA 12                 
1 21263U 91032A   26062.93259479  .00000172  00000+0  89114-4 0  9999
2 21263  98.6146  53.0237 0013252 340.6541  19.4135 14.26715369809954
NOAA 13                 
1 22739U 93050A   26062.84582406  .00000169  00000+0  11202-3 0  9997
2 22739  98.6926  10.7563 0010542  72.0332 288.1989 14.13634068678491
NOAA 14                 
1 23455U 94089A   26062.95304313  .00000112  00000+0  79487-4 0  9995
2 23455  98.5012  37.4407 0010084  32.0977 328.0809 14.14653816608320
NOAA 15                 
1 25338U 98030A   26062.94954232  .00000205  00000+0  10155-3 0  9996
2 25338  98.5167  86.3807 0009187 298.9927  61.0333 14.27109948446287
NOAA 16                 
1 26536U 00055A   26062.93675703  .00000150  00000+0  10094-3 0  9990
2 26536  98.4707  82.7392 0009383 240.4068 119.6171 14.13896326608853
