[{"OBJECT_NAME":"NOAA 1","OBJECT_ID":"1970-106A","EPOCH":"2026-03-03T18:12:05.168160","MEAN_MOTION":12.54049147,"ECCENTRICITY":0.0031685,"INCLINATION":101.3525,"RA_OF_ASC_NODE":102.0386,"ARG_OF_PERICENTER":192.4898,"MEAN_ANOMALY":290.6234,"EPHEMERIS_TYPE":0,"CLASSIFICATION_TYPE":"U","NORAD_CAT_ID":4793,"ELEMENT_SET_NO":999,"REV_AT_EPOCH":52747,"BSTAR":0.00010669793,"MEAN_MOTION_DOT":-2.6e-7,"MEAN_MOTION_DDOT":0},{"OBJECT_NAME":"NOAA 2 (ITOS-D)","OBJECT_ID":"1972-082A","EPOCH":"2026-03-03T16:20:57.680160","MEAN_MOTION":12.53211619,"ECCENTRICITY":0.00040001,"INCLINATION":102.0168,"RA_OF_ASC_NODE":80.0662,"ARG_OF_PERICENTER":16.561,"MEAN_ANOMALY":98.3303,"EPHEMERIS_TYPE":0,"CLASSIFICATION_TYPE":"U","NORAD_CAT_ID":6235,"ELEMENT_SET_NO":999,"REV_AT_EPOCH":44173,"BSTAR":8.8373824e-5,"MEAN_MOTION_DOT":-3.2e-7,"MEAN_MOTION_DDOT":0},{"OBJECT_NAME":"NOAA 3","OBJECT_ID":"1973-086A","EPOCH":"2026-03-03T15:14:49.915680","MEAN_MOTION":12.40391593,"ECCENTRICITY":0.0006188,"INCLINATION":102.2909,"RA_OF_ASC_NODE":75.5548,"ARG_OF_PERICENTER":320.349,"MEAN_ANOMALY":157.845,"EPHEMERIS_TYPE":0,"CLASSIFICATION_TYPE":"U","NORAD_CAT_ID":6920,"ELEMENT_SET_NO":999,"REV_AT_EPOCH":36881,"BSTAR":9.8786e-5,"MEAN_MOTION_DOT":-3.3e-7,"MEAN_MOTION_DDOT":0},{"OBJECT_NAME":"NOAA 4","OBJECT_ID":"1974-089A","EPOCH":"2026-03-03T15:49:48.008352","MEAN_MOTION":12.53201525,"ECCENTRICITY":0.0009166,"INCLINATION":102.0074,"RA_OF_ASC_NODE":74.3262,"ARG_OF_PERICENTER":40.1247,"MEAN_ANOMALY":69.2102,"EPHEMERIS_TYPE":0,"CLASSIFICATION_TYPE":"U","NORAD_CAT_ID":7529,"ELEMENT_SET_NO":999,"REV_AT_EPOCH":34630,"BSTAR":2.5942e-5,"MEAN_MOTION_DOT":-4.2e-7,"MEAN_MOTION_DDOT":0},{"OBJECT_NAME":"NOAA 5","OBJECT_ID":"1976-077A","EPOCH":"2026-03-03T22:18:57.225600","MEAN_MOTION":12.37828214,"ECCENTRICITY":0.00097646,"INCLINATION":102.2951,"RA_OF_ASC_NODE":48.4066,"ARG_OF_PERICENTER":171.1689,"MEAN_ANOMALY":202.75,"EPHEMERIS_TYPE":0,"CLASSIFICATION_TYPE":"U","NORAD_CAT_ID":9057,"ELEMENT_SET_NO":999,"REV_AT_EPOCH":24145,"BSTAR":5.5212301e-5,"MEAN_MOTION_DOT":-3.9e-7,"MEAN_MOTION_DDOT":0},{"OBJECT_NAME":"TIROS N","OBJECT_ID":"1978-096A","EPOCH":"2026-03-03T16:17:01.407264","MEAN_MOTION":14.19335292,"ECCENTRICITY":0.00104024,"INCLINATION":98.4639,"RA_OF_ASC_NODE":88.4649,"ARG_OF_PERICENTER":182.1762,"MEAN_ANOMALY":177.9371,"EPHEMERIS_TYPE":0,"CLASSIFICATION_TYPE":"U","NORAD_CAT_ID":11060,"ELEMENT_SET_NO":999,"REV_AT_EPOCH":66378,"BSTAR":0.00012799151,"MEAN_MOTION_DOT":2.27e-6,"MEAN_MOTION_DDOT":0},{"OBJECT_NAME":"NOAA 6","OBJECT_ID":"1979-057A","EPOCH":"2026-03-03T16:42:40.547232","MEAN_MOTION":14.35428356,"ECCENTRICITY":0.00094064,"INCLINATION":98.5758,"RA_OF_ASC_NODE":92.8861,"ARG_OF_PERICENTER":205.1023,"MEAN_ANOMALY":154.9706,"EPHEMERIS_TYPE":0,"CLASSIFICATION_TYPE":"U","NORAD_CAT_ID":11416,"ELEMENT_SET_NO":999,"REV_AT_EPOCH":43582,"BSTAR":0.00016208967,"MEAN_MOTION_DOT":4.22e-6,"MEAN_MOTION_DDOT":0},{"OBJECT_NAME":"NOAA 7","OBJECT_ID":"1981-059A","EPOCH":"2026-03-03T19:17:13.301088","MEAN_MOTION":14.17771907,"ECCENTRICITY":0.00110374,"INCLINATION":98.8071,"RA_OF_ASC_NODE":130.9043,"ARG_OF_PERICENTER":204.8445,"MEAN_ANOMALY":155.2199,"EPHEMERIS_TYPE":0,"CLASSIFICATION_TYPE":"U","NORAD_CAT_ID":12553,"ELEMENT_SET_NO":999,"REV_AT_EPOCH":30981,"BSTAR":6.7395696e-5,"MEAN_MOTION_DOT":9.3e-7,"MEAN_MOTION_DDOT":0},{"OBJECT_NAME":"NOAA 8","OBJECT_ID":"1983-022A","EPOCH":"2026-03-03T14:32:32.452224","MEAN_MOTION":14.29764075,"ECCENTRICITY":0.0014335,"INCLINATION":98.7373,"RA_OF_ASC_NODE":75.3832,"ARG_OF_PERICENTER":203.6155,"MEAN_ANOMALY":156.437,"EPHEMERIS_TYPE":0,"CLASSIFICATION_TYPE":"U","NORAD_CAT_ID":13923,"ELEMENT_SET_NO":999,"REV_AT_EPOCH":23598,"BSTAR":9.6927e-5,"MEAN_MOTION_DOT":2.04e-6,"MEAN_MOTION_DDOT":0},{"OBJECT_NAME":"NOAA 9","OBJECT_ID":"1984-123A","EPOCH":"2026-03-03T17:23:51.983808","MEAN_MOTION":14.17036595,"ECCENTRICITY":0.00137076,"INCLINATION":99.1101,"RA_OF_ASC_NODE":86.8671,"ARG_OF_PERICENTER":289.8193,"MEAN_ANOMALY":183.1605,"EPHEMERIS_TYPE":0,"CLASSIFICATION_TYPE":"U","NORAD_CAT_ID":15427,"ELEMENT_SET_NO":999,"REV_AT_EPOCH":12848,"BSTAR":9.5369627e-5,"MEAN_MOTION_DOT":1.45e-6,"MEAN_MOTION_DDOT":0},{"OBJECT_NAME":"NOAA 10","OBJECT_ID":"1986-073A","EPOCH":"2026-03-03T12:46:36.067296","MEAN_MOTION":14.29141199,"ECCENTRICITY":0.001121,"INCLINATION":98.6994,"RA_OF_ASC_NODE":55.9376,"ARG_OF_PERICENTER":308.8224,"MEAN_ANOMALY":162.0514,"EPHEMERIS_TYPE":0,"CLASSIFICATION_TYPE":"U","NORAD_CAT_ID":16969,"ELEMENT_SET_NO":999,"REV_AT_EPOCH":5432,"BSTAR":0.00010398,"MEAN_MOTION_DOT":2.19e-6,"MEAN_MOTION_DDOT":0},{"OBJECT_NAME":"NOAA 11","OBJECT_ID":"1988-089A","EPOCH":"2026-03-03T20:24:19.711296","MEAN_MOTION":14.15819243,"ECCENTRICITY":0.00100725,"INCLINATION":98.609,"RA_OF_ASC_NODE":12.0878,"ARG_OF_PERICENTER":237.7636,"MEAN_ANOMALY":122.2562,"EPHEMERIS_TYPE":0,"CLASSIFICATION_TYPE":"U","NORAD_CAT_ID":19531,"ELEMENT_SET_NO":999,"REV_AT_EPOCH":93257,"BSTAR":6.3575462e-5,"MEAN_MOTION_DOT":8.3e-7,"MEAN_MOTION_DDOT":0},{"OBJECT_NAME":"NOAA 12","OBJECT_ID":"1991-032A","EPOCH":"2026-03-03T22:22:56.189856","MEAN_MOTION":14.26715369,"ECCENTRICITY":0.00132524,"INCLINATION":98.6146,"RA_OF_ASC_NODE":53.0237,"ARG_OF_PERICENTER":340.6541,"MEAN_ANOMALY":19.4135,"EPHEMERIS_TYPE":0,"CLASSIFICATION_TYPE":"U","NORAD_CAT_ID":21263,"ELEMENT_SET_NO":999,"REV_AT_EPOCH":80995,"BSTAR":8.9113768e-5,"MEAN_MOTION_DOT":1.72e-6,"MEAN_MOTION_DDOT":0},{"OBJECT_NAME":"NOAA 13","OBJECT_ID":"1993-050A","EPOCH":"2026-03-03T20:17:59.198784","MEAN_MOTION":14.13634068,"ECCENTRICITY":0.00105427,"INCLINATION":98.6926,"RA_OF_ASC_NODE":10.7563,"ARG_OF_PERICENTER":72.0332,"MEAN_ANOMALY":288.1989,"EPHEMERIS_TYPE":0,"CLASSIFICATION_TYPE":"U","NORAD_CAT_ID":22739,"ELEMENT_SET_NO":999,"REV_AT_EPOCH":67849,"BSTAR":0.00011202304,"MEAN_MOTION_DOT":1.69e-6,"MEAN_MOTION_DDOT":0},{"OBJECT_NAME":"NOAA 14","OBJECT_ID":"1994-089A","EPOCH":"2026-03-03T22:52:22.926432","MEAN_MOTION":14.14653816,"ECCENTRICITY":0.00100847,"INCLINATION":98.5012,"RA_OF_ASC_NODE":37.4407,"ARG_OF_PERICENTER":32.0977,"MEAN_ANOMALY":328.0809,"EPHEMERIS_TYPE":0,"CLASSIFICATION_TYPE":"U","NORAD_CAT_ID":23455,"ELEMENT_SET_NO":999,"REV_AT_EPOCH":60832,"BSTAR":7.9487447e-5,"MEAN_MOTION_DOT":1.12e-6,"MEAN_MOTION_DDOT":0},{"OBJECT_NAME":"NOAA 15","OBJECT_ID":"1998-030A","EPOCH":"2026-03-03T22:47:20.456448","MEAN_MOTION":14.27109948,"ECCENTRICITY":0.00091877,"INCLINATION":98.5167,"RA_OF_ASC_NODE":86.3807,"ARG_OF_PERICENTER":298.9927,"MEAN_ANOMALY":61.0333,"EPHEMERIS_TYPE":0,"CLASSIFICATION_TYPE":"U","NORAD_CAT_ID":25338,"ELEMENT_SET_NO":999,"REV_AT_EPOCH":44628,"BSTAR":0.00010154564,"MEAN_MOTION_DOT":2.05e-6,"MEAN_MOTION_DDOT":0},{"OBJECT_NAME":"NOAA 16","OBJECT_ID":"2000-055A","EPOCH":"2026-03-03T22:28:55.807392","MEAN_MOTION":14.13896326,"ECCENTRICITY":0.00093833,"INCLINATION":98.4707,"RA_OF_ASC_NODE":82.7392,"ARG_OF_PERICENTER":240.4068,"MEAN_ANOMALY":119.6171,"EPHEMERIS_TYPE":0,"CLASSIFICATION_TYPE":"U","NORAD_CAT_ID":26536,"ELEMENT_SET_NO":999,"REV_AT_EPOCH":60885,"BSTAR":0.00010093633,"MEAN_MOTION_DOT":1.5e-6,"MEAN_MOTION_DDOT":0}]
